{
  "type": "FeatureCollection",
  "features": [
    {
      "type": "Feature",
      "id": 532249,
      "geometry": {
        "type": "Point",
        "coordinates": [
          -119.569481048669,
          45.8863518053616
        ]
      },
      "properties": {
        "OBJECTID": 532249,
        "SourceOID": 43068018,
        "ABCDMisc": null,
        "ADSPermissionState": "DEFAULT",
        "ContainmentDateTime": null,
        "ControlDateTime": null,
        "CreatedBySystem": "wildcade",
        "IncidentSize": null,
        "DiscoveryAcres": null,
        "DispatchCenterID": "WACWC",
        "EstimatedCostToDate": null,
        "FinalAcres": null,
        "FinalFireReportApprovedByTitle": null,
        "FinalFireReportApprovedByUnit": null,
        "FinalFireReportApprovedDate": null,
        "FireBehaviorGeneral": null,
        "FireBehaviorGeneral1": null,
        "FireBehaviorGeneral2": null,
        "FireBehaviorGeneral3": null,
        "FireCause": "Undetermined",
        "FireCauseGeneral": null,
        "FireCauseSpecific": null,
        "FireCode": null,
        "FireDepartmentID": null,
        "FireDiscoveryDateTime": 1771351440000,
        "FireMgmtComplexity": null,
        "FireOutDateTime": null,
        "FireStrategyConfinePercent": null,
        "FireStrategyFullSuppPercent": null,
        "FireStrategyMonitorPercent": null,
        "FireStrategyPointZonePercent": null,
        "FSJobCode": null,
        "FSOverrideCode": null,
        "GACC": "NWCC",
        "ICS209ReportDateTime": null,
        "ICS209ReportForTimePeriodFrom": null,
        "ICS209ReportForTimePeriodTo": null,
        "ICS209ReportStatus": null,
        "IncidentManagementOrganization": null,
        "IncidentName": "UMATILLA NWR TUMBLEWEED RX",
        "IncidentShortDescription": null,
        "IncidentTypeCategory": "RX",
        "IncidentTypeKind": "FI",
        "InitialLatitude": 45.886346,
        "InitialLongitude": -119.569467,
        "InitialResponseAcres": null,
        "InitialResponseDateTime": null,
        "IrwinID": "{071D817D-6DDB-485A-9B8E-387FE4E03C51}",
        "IsFireCauseInvestigated": null,
        "IsFireCodeRequested": 0,
        "IsFSAssisted": 0,
        "IsMultiJurisdictional": 0,
        "IsReimbursable": 0,
        "IsTrespass": 0,
        "IsUnifiedCommand": null,
        "LocalIncidentIdentifier": "260032",
        "ModifiedBySystem": "wildcade",
        "PercentContained": null,
        "PercentPerimeterToBeContained": null,
        "POOCity": null,
        "POOCounty": "Morrow",
        "POODispatchCenterID": "ORBMC",
        "POOFips": "41049",
        "POOJurisdictionalAgency": "USFWS",
        "POOJurisdictionalUnit": "ORUMR",
        "POOJurisdictionalUnitParentUnit": null,
        "POOLandownerCategory": "USFWS",
        "POOLandownerKind": "Federal",
        "POOLegalDescPrincipalMeridian": null,
        "POOLegalDescQtr": null,
        "POOLegalDescQtrQtr": null,
        "POOLegalDescRange": null,
        "POOLegalDescSection": null,
        "POOLegalDescTownship": null,
        "POOPredictiveServiceAreaID": "NW10",
        "POOProtectingAgency": "USFWS",
        "POOProtectingUnit": "WAMCR",
        "POOState": "US-OR",
        "PredominantFuelGroup": null,
        "PredominantFuelModel": null,
        "PrimaryFuelModel": null,
        "SecondaryFuelModel": null,
        "TotalIncidentPersonnel": null,
        "UniqueFireIdentifier": "2026-WAMCR-260032",
        "WFDSSDecisionStatus": "No Decision",
        "EstimatedFinalCost": null,
        "OrganizationalAssessment": null,
        "StrategicDecisionPublishDate": null,
        "CreatedOnDateTime_dt": 1771351518200,
        "ModifiedOnDateTime_dt": 1779732930657,
        "ActiveFireCandidate": 1,
        "IsCpxChild": 0,
        "CpxName": null,
        "CpxID": null,
        "SourceGlobalID": "{071D817D-6DDB-485A-9B8E-387FE4E03C51}",
        "GlobalID": "c6ff7a6f-e422-4648-bdf7-5442beacce67",
        "IncidentComplexityLevel": null
      }
    },
    {
      "type": "Feature",
      "id": 542755,
      "geometry": {
        "type": "Point",
        "coordinates": [
          -118.450113512075,
          44.1370057887299
        ]
      },
      "properties": {
        "OBJECTID": 542755,
        "SourceOID": 43263891,
        "ABCDMisc": null,
        "ADSPermissionState": "DEFAULT",
        "ContainmentDateTime": null,
        "ControlDateTime": null,
        "CreatedBySystem": "wildcade",
        "IncidentSize": 10,
        "DiscoveryAcres": null,
        "DispatchCenterID": "ORJDCC",
        "EstimatedCostToDate": null,
        "FinalAcres": null,
        "FinalFireReportApprovedByTitle": null,
        "FinalFireReportApprovedByUnit": null,
        "FinalFireReportApprovedDate": null,
        "FireBehaviorGeneral": null,
        "FireBehaviorGeneral1": null,
        "FireBehaviorGeneral2": null,
        "FireBehaviorGeneral3": null,
        "FireCause": "Undetermined",
        "FireCauseGeneral": null,
        "FireCauseSpecific": null,
        "FireCode": null,
        "FireDepartmentID": null,
        "FireDiscoveryDateTime": 1774895854000,
        "FireMgmtComplexity": null,
        "FireOutDateTime": null,
        "FireStrategyConfinePercent": null,
        "FireStrategyFullSuppPercent": null,
        "FireStrategyMonitorPercent": null,
        "FireStrategyPointZonePercent": null,
        "FSJobCode": "WS",
        "FSOverrideCode": "1806",
        "GACC": "NWCC",
        "ICS209ReportDateTime": null,
        "ICS209ReportForTimePeriodFrom": null,
        "ICS209ReportForTimePeriodTo": null,
        "ICS209ReportStatus": null,
        "IncidentManagementOrganization": null,
        "IncidentName": "ELK 16 RX",
        "IncidentShortDescription": null,
        "IncidentTypeCategory": "RX",
        "IncidentTypeKind": "FI",
        "InitialLatitude": 44.226388,
        "InitialLongitude": -118.384787,
        "InitialResponseAcres": null,
        "InitialResponseDateTime": null,
        "IrwinID": "{3B027DFA-0D43-4756-9F30-95CD8BB77DB9}",
        "IsFireCauseInvestigated": null,
        "IsFireCodeRequested": 0,
        "IsFSAssisted": 1,
        "IsMultiJurisdictional": 0,
        "IsReimbursable": 0,
        "IsTrespass": 0,
        "IsUnifiedCommand": null,
        "LocalIncidentIdentifier": "026023",
        "ModifiedBySystem": "wildcade",
        "PercentContained": null,
        "PercentPerimeterToBeContained": null,
        "POOCity": null,
        "POOCounty": "Grant",
        "POODispatchCenterID": "ORJDCC",
        "POOFips": "41023",
        "POOJurisdictionalAgency": "USFS",
        "POOJurisdictionalUnit": "ORMAF",
        "POOJurisdictionalUnitParentUnit": null,
        "POOLandownerCategory": "USFS",
        "POOLandownerKind": "Federal",
        "POOLegalDescPrincipalMeridian": null,
        "POOLegalDescQtr": null,
        "POOLegalDescQtrQtr": null,
        "POOLegalDescRange": null,
        "POOLegalDescSection": null,
        "POOLegalDescTownship": null,
        "POOPredictiveServiceAreaID": "NW12",
        "POOProtectingAgency": "USFS",
        "POOProtectingUnit": "ORMAF",
        "POOState": "US-OR",
        "PredominantFuelGroup": null,
        "PredominantFuelModel": null,
        "PrimaryFuelModel": null,
        "SecondaryFuelModel": null,
        "TotalIncidentPersonnel": null,
        "UniqueFireIdentifier": "2026-ORMAF-026023",
        "WFDSSDecisionStatus": "No Decision",
        "EstimatedFinalCost": null,
        "OrganizationalAssessment": null,
        "StrategicDecisionPublishDate": null,
        "CreatedOnDateTime_dt": 1774895981970,
        "ModifiedOnDateTime_dt": 1779459490187,
        "ActiveFireCandidate": 1,
        "IsCpxChild": 0,
        "CpxName": null,
        "CpxID": null,
        "SourceGlobalID": "{F7637747-BD54-474D-8F94-A3744D487D1E}",
        "GlobalID": "873375be-cf5d-4d5f-a75d-9c9cf2cc74f5",
        "IncidentComplexityLevel": null
      }
    },
    {
      "type": "Feature",
      "id": 552402,
      "geometry": {
        "type": "Point",
        "coordinates": [
          -120.917772869837,
          43.8102995301558
        ]
      },
      "properties": {
        "OBJECTID": 552402,
        "SourceOID": 43276535,
        "ABCDMisc": null,
        "ADSPermissionState": "ICS209",
        "ContainmentDateTime": null,
        "ControlDateTime": null,
        "CreatedBySystem": "wildcade",
        "IncidentSize": 2589,
        "DiscoveryAcres": 0.01,
        "DispatchCenterID": "ORCOC",
        "EstimatedCostToDate": 1600000,
        "FinalAcres": null,
        "FinalFireReportApprovedByTitle": null,
        "FinalFireReportApprovedByUnit": null,
        "FinalFireReportApprovedDate": null,
        "FireBehaviorGeneral": "Minimal",
        "FireBehaviorGeneral1": "Smoldering",
        "FireBehaviorGeneral2": "Smoldering",
        "FireBehaviorGeneral3": "Isolated Torching",
        "FireCause": "Human",
        "FireCauseGeneral": null,
        "FireCauseSpecific": null,
        "FireCode": "SNAP",
        "FireDepartmentID": null,
        "FireDiscoveryDateTime": 1778195160000,
        "FireMgmtComplexity": null,
        "FireOutDateTime": null,
        "FireStrategyConfinePercent": 0,
        "FireStrategyFullSuppPercent": 100,
        "FireStrategyMonitorPercent": 0,
        "FireStrategyPointZonePercent": 0,
        "FSJobCode": "P6",
        "FSOverrideCode": "0601",
        "GACC": "NWCC",
        "ICS209ReportDateTime": 1779828197000,
        "ICS209ReportForTimePeriodFrom": 1778637600000,
        "ICS209ReportForTimePeriodTo": 1779827400000,
        "ICS209ReportStatus": "F",
        "IncidentManagementOrganization": "Type 3 IC",
        "IncidentName": "PINE MOUNTAIN",
        "IncidentShortDescription": "13 Miles W from Brothers, OR",
        "IncidentTypeCategory": "WF",
        "IncidentTypeKind": "FI",
        "InitialLatitude": 43.810294,
        "InitialLongitude": -120.917759,
        "InitialResponseAcres": null,
        "InitialResponseDateTime": null,
        "IrwinID": "{5985829D-31DE-4A80-A836-25907B851057}",
        "IsFireCauseInvestigated": null,
        "IsFireCodeRequested": 0,
        "IsFSAssisted": 1,
        "IsMultiJurisdictional": 0,
        "IsReimbursable": 0,
        "IsTrespass": 0,
        "IsUnifiedCommand": 0,
        "LocalIncidentIdentifier": "000155",
        "ModifiedBySystem": "ics209",
        "PercentContained": 100,
        "PercentPerimeterToBeContained": 100,
        "POOCity": "13 miles West of Brothers, OR",
        "POOCounty": "Deschutes",
        "POODispatchCenterID": "ORCOC",
        "POOFips": "41017",
        "POOJurisdictionalAgency": "USFS",
        "POOJurisdictionalUnit": "ORDEF",
        "POOJurisdictionalUnitParentUnit": null,
        "POOLandownerCategory": "USFS",
        "POOLandownerKind": "Federal",
        "POOLegalDescPrincipalMeridian": null,
        "POOLegalDescQtr": null,
        "POOLegalDescQtrQtr": null,
        "POOLegalDescRange": null,
        "POOLegalDescSection": null,
        "POOLegalDescTownship": null,
        "POOPredictiveServiceAreaID": "NW07",
        "POOProtectingAgency": "USFS",
        "POOProtectingUnit": "ORDEF",
        "POOState": "US-OR",
        "PredominantFuelGroup": null,
        "PredominantFuelModel": null,
        "PrimaryFuelModel": "Timber (Grass and Understory)",
        "SecondaryFuelModel": "Chaparral (6 feet)",
        "TotalIncidentPersonnel": 118,
        "UniqueFireIdentifier": "2026-ORDEF-000155",
        "WFDSSDecisionStatus": "Approved Decision",
        "EstimatedFinalCost": 2500000,
        "OrganizationalAssessment": "Type 3 Team",
        "StrategicDecisionPublishDate": 1778269773000,
        "CreatedOnDateTime_dt": 1778196057313,
        "ModifiedOnDateTime_dt": 1779828196973,
        "ActiveFireCandidate": 1,
        "IsCpxChild": 0,
        "CpxName": null,
        "CpxID": null,
        "SourceGlobalID": "{94C6B351-537E-461A-B332-84A057B3EFFB}",
        "GlobalID": "dfec4f03-8ee8-4877-afe2-ef248fad8962",
        "IncidentComplexityLevel": "Type 3 Incident"
      }
    },
    {
      "type": "Feature",
      "id": 555681,
      "geometry": {
        "type": "Point",
        "coordinates": [
          -121.381731215027,
          45.2197005783236
        ]
      },
      "properties": {
        "OBJECTID": 555681,
        "SourceOID": 43280813,
        "ABCDMisc": null,
        "ADSPermissionState": "DEFAULT",
        "ContainmentDateTime": null,
        "ControlDateTime": null,
        "CreatedBySystem": "wildcade",
        "IncidentSize": 32,
        "DiscoveryAcres": null,
        "DispatchCenterID": "WACCC",
        "EstimatedCostToDate": null,
        "FinalAcres": null,
        "FinalFireReportApprovedByTitle": null,
        "FinalFireReportApprovedByUnit": null,
        "FinalFireReportApprovedDate": null,
        "FireBehaviorGeneral": null,
        "FireBehaviorGeneral1": null,
        "FireBehaviorGeneral2": null,
        "FireBehaviorGeneral3": null,
        "FireCause": "Undetermined",
        "FireCauseGeneral": null,
        "FireCauseSpecific": null,
        "FireCode": null,
        "FireDepartmentID": null,
        "FireDiscoveryDateTime": 1779220804000,
        "FireMgmtComplexity": null,
        "FireOutDateTime": null,
        "FireStrategyConfinePercent": null,
        "FireStrategyFullSuppPercent": null,
        "FireStrategyMonitorPercent": null,
        "FireStrategyPointZonePercent": null,
        "FSJobCode": null,
        "FSOverrideCode": null,
        "GACC": "NWCC",
        "ICS209ReportDateTime": null,
        "ICS209ReportForTimePeriodFrom": null,
        "ICS209ReportForTimePeriodTo": null,
        "ICS209ReportStatus": null,
        "IncidentManagementOrganization": null,
        "IncidentName": "Camp Cody Rx - East",
        "IncidentShortDescription": null,
        "IncidentTypeCategory": "RX",
        "IncidentTypeKind": "FI",
        "InitialLatitude": 45.219695,
        "InitialLongitude": -121.381717,
        "InitialResponseAcres": null,
        "InitialResponseDateTime": null,
        "IrwinID": "{FE28FD4C-8981-40BC-AB0B-501666DD4846}",
        "IsFireCauseInvestigated": null,
        "IsFireCodeRequested": 0,
        "IsFSAssisted": 1,
        "IsMultiJurisdictional": 0,
        "IsReimbursable": 0,
        "IsTrespass": 0,
        "IsUnifiedCommand": null,
        "LocalIncidentIdentifier": "000206",
        "ModifiedBySystem": "wildcade",
        "PercentContained": null,
        "PercentPerimeterToBeContained": null,
        "POOCity": null,
        "POOCounty": "Wasco",
        "POODispatchCenterID": "WACCC",
        "POOFips": "41065",
        "POOJurisdictionalAgency": "USFS",
        "POOJurisdictionalUnit": "ORMHF",
        "POOJurisdictionalUnitParentUnit": null,
        "POOLandownerCategory": "USFS",
        "POOLandownerKind": "Federal",
        "POOLegalDescPrincipalMeridian": null,
        "POOLegalDescQtr": null,
        "POOLegalDescQtrQtr": null,
        "POOLegalDescRange": null,
        "POOLegalDescSection": null,
        "POOLegalDescTownship": null,
        "POOPredictiveServiceAreaID": "NW06",
        "POOProtectingAgency": "USFS",
        "POOProtectingUnit": "ORMHF",
        "POOState": "US-OR",
        "PredominantFuelGroup": null,
        "PredominantFuelModel": null,
        "PrimaryFuelModel": null,
        "SecondaryFuelModel": null,
        "TotalIncidentPersonnel": null,
        "UniqueFireIdentifier": "2026-ORMHF-000206",
        "WFDSSDecisionStatus": "No Decision",
        "EstimatedFinalCost": null,
        "OrganizationalAssessment": null,
        "StrategicDecisionPublishDate": null,
        "CreatedOnDateTime_dt": 1779296959753,
        "ModifiedOnDateTime_dt": 1779404956810,
        "ActiveFireCandidate": 1,
        "IsCpxChild": 0,
        "CpxName": null,
        "CpxID": null,
        "SourceGlobalID": "{7CB9D92B-3D1E-44F9-8F9B-82370549B6F1}",
        "GlobalID": "0f1f2430-c753-4b7a-a191-b9fd27face2e",
        "IncidentComplexityLevel": null
      }
    },
    {
      "type": "Feature",
      "id": 556108,
      "geometry": {
        "type": "Point",
        "coordinates": [
          -123.803331236568,
          43.369264226204
        ]
      },
      "properties": {
        "OBJECTID": 556108,
        "SourceOID": 43281240,
        "ABCDMisc": null,
        "ADSPermissionState": "DEFAULT",
        "ContainmentDateTime": null,
        "ControlDateTime": null,
        "CreatedBySystem": "fireweb",
        "IncidentSize": 0.01,
        "DiscoveryAcres": 0.01,
        "DispatchCenterID": "OR72C",
        "EstimatedCostToDate": null,
        "FinalAcres": 0.01,
        "FinalFireReportApprovedByTitle": null,
        "FinalFireReportApprovedByUnit": null,
        "FinalFireReportApprovedDate": null,
        "FireBehaviorGeneral": null,
        "FireBehaviorGeneral1": null,
        "FireBehaviorGeneral2": null,
        "FireBehaviorGeneral3": null,
        "FireCause": "Undetermined",
        "FireCauseGeneral": "Undetermined (remarks required)",
        "FireCauseSpecific": null,
        "FireCode": null,
        "FireDepartmentID": null,
        "FireDiscoveryDateTime": 1777667220000,
        "FireMgmtComplexity": null,
        "FireOutDateTime": null,
        "FireStrategyConfinePercent": null,
        "FireStrategyFullSuppPercent": null,
        "FireStrategyMonitorPercent": null,
        "FireStrategyPointZonePercent": null,
        "FSJobCode": null,
        "FSOverrideCode": null,
        "GACC": "NWCC",
        "ICS209ReportDateTime": null,
        "ICS209ReportForTimePeriodFrom": null,
        "ICS209ReportForTimePeriodTo": null,
        "ICS209ReportStatus": null,
        "IncidentManagementOrganization": null,
        "IncidentName": "6750 Rd",
        "IncidentShortDescription": null,
        "IncidentTypeCategory": "WF",
        "IncidentTypeKind": "FI",
        "InitialLatitude": 43.369259,
        "InitialLongitude": -123.803317,
        "InitialResponseAcres": null,
        "InitialResponseDateTime": null,
        "IrwinID": "{75F90116-4E5F-4187-96C2-1BB89209291A}",
        "IsFireCauseInvestigated": null,
        "IsFireCodeRequested": 0,
        "IsFSAssisted": null,
        "IsMultiJurisdictional": null,
        "IsReimbursable": null,
        "IsTrespass": null,
        "IsUnifiedCommand": null,
        "LocalIncidentIdentifier": "014126",
        "ModifiedBySystem": "IROC",
        "PercentContained": null,
        "PercentPerimeterToBeContained": null,
        "POOCity": null,
        "POOCounty": "Coos",
        "POODispatchCenterID": "ORRICC",
        "POOFips": "41011",
        "POOJurisdictionalAgency": null,
        "POOJurisdictionalUnit": null,
        "POOJurisdictionalUnitParentUnit": null,
        "POOLandownerCategory": "Private",
        "POOLandownerKind": "Private",
        "POOLegalDescPrincipalMeridian": null,
        "POOLegalDescQtr": null,
        "POOLegalDescQtrQtr": null,
        "POOLegalDescRange": null,
        "POOLegalDescSection": null,
        "POOLegalDescTownship": null,
        "POOPredictiveServiceAreaID": "NW03",
        "POOProtectingAgency": "DOF",
        "POOProtectingUnit": "OR721S",
        "POOState": "US-OR",
        "PredominantFuelGroup": null,
        "PredominantFuelModel": "TU2",
        "PrimaryFuelModel": null,
        "SecondaryFuelModel": null,
        "TotalIncidentPersonnel": null,
        "UniqueFireIdentifier": "2026-OR721S-014126",
        "WFDSSDecisionStatus": "No Decision",
        "EstimatedFinalCost": null,
        "OrganizationalAssessment": null,
        "StrategicDecisionPublishDate": null,
        "CreatedOnDateTime_dt": 1779470352593,
        "ModifiedOnDateTime_dt": 1779907635117,
        "ActiveFireCandidate": 1,
        "IsCpxChild": 0,
        "CpxName": null,
        "CpxID": null,
        "SourceGlobalID": "{3637DB31-4A8C-41F0-99FC-BC9DABC6DA3C}",
        "GlobalID": "c1a586bf-3c34-4b28-80ab-61b6f0c25d0d",
        "IncidentComplexityLevel": null
      }
    },
    {
      "type": "Feature",
      "id": 556225,
      "geometry": {
        "type": "Point",
        "coordinates": [
          -123.061014206614,
          43.8129719945638
        ]
      },
      "properties": {
        "OBJECTID": 556225,
        "SourceOID": 43281356,
        "ABCDMisc": null,
        "ADSPermissionState": "DEFAULT",
        "ContainmentDateTime": null,
        "ControlDateTime": null,
        "CreatedBySystem": "fireweb",
        "IncidentSize": 0.25,
        "DiscoveryAcres": 0.25,
        "DispatchCenterID": "OR78C",
        "EstimatedCostToDate": null,
        "FinalAcres": 0.25,
        "FinalFireReportApprovedByTitle": null,
        "FinalFireReportApprovedByUnit": null,
        "FinalFireReportApprovedDate": null,
        "FireBehaviorGeneral": null,
        "FireBehaviorGeneral1": null,
        "FireBehaviorGeneral2": null,
        "FireBehaviorGeneral3": null,
        "FireCause": "Human",
        "FireCauseGeneral": "Debris and open burning",
        "FireCauseSpecific": null,
        "FireCode": null,
        "FireDepartmentID": null,
        "FireDiscoveryDateTime": 1779478920000,
        "FireMgmtComplexity": null,
        "FireOutDateTime": null,
        "FireStrategyConfinePercent": null,
        "FireStrategyFullSuppPercent": null,
        "FireStrategyMonitorPercent": null,
        "FireStrategyPointZonePercent": null,
        "FSJobCode": null,
        "FSOverrideCode": null,
        "GACC": "NWCC",
        "ICS209ReportDateTime": null,
        "ICS209ReportForTimePeriodFrom": null,
        "ICS209ReportForTimePeriodTo": null,
        "ICS209ReportStatus": null,
        "IncidentManagementOrganization": null,
        "IncidentName": "Elk",
        "IncidentShortDescription": null,
        "IncidentTypeCategory": "WF",
        "IncidentTypeKind": "FI",
        "InitialLatitude": 43.81296667,
        "InitialLongitude": -123.061,
        "InitialResponseAcres": null,
        "InitialResponseDateTime": null,
        "IrwinID": "{77C4B798-9FBC-49A2-9250-4A46313D884D}",
        "IsFireCauseInvestigated": null,
        "IsFireCodeRequested": 0,
        "IsFSAssisted": null,
        "IsMultiJurisdictional": null,
        "IsReimbursable": null,
        "IsTrespass": null,
        "IsUnifiedCommand": null,
        "LocalIncidentIdentifier": "000196",
        "ModifiedBySystem": "fireweb",
        "PercentContained": null,
        "PercentPerimeterToBeContained": null,
        "POOCity": null,
        "POOCounty": "Lane",
        "POODispatchCenterID": "OREIC",
        "POOFips": "41039",
        "POOJurisdictionalAgency": "State",
        "POOJurisdictionalUnit": null,
        "POOJurisdictionalUnitParentUnit": null,
        "POOLandownerCategory": "Private",
        "POOLandownerKind": "Private",
        "POOLegalDescPrincipalMeridian": null,
        "POOLegalDescQtr": null,
        "POOLegalDescQtrQtr": null,
        "POOLegalDescRange": null,
        "POOLegalDescSection": null,
        "POOLegalDescTownship": null,
        "POOPredictiveServiceAreaID": "NW03",
        "POOProtectingAgency": "DOF",
        "POOProtectingUnit": "OR781S",
        "POOState": "US-OR",
        "PredominantFuelGroup": null,
        "PredominantFuelModel": "GR4",
        "PrimaryFuelModel": null,
        "SecondaryFuelModel": null,
        "TotalIncidentPersonnel": null,
        "UniqueFireIdentifier": "2026-OR781S-000196",
        "WFDSSDecisionStatus": "No Decision",
        "EstimatedFinalCost": null,
        "OrganizationalAssessment": null,
        "StrategicDecisionPublishDate": null,
        "CreatedOnDateTime_dt": 1779490370457,
        "ModifiedOnDateTime_dt": 1779839704357,
        "ActiveFireCandidate": 1,
        "IsCpxChild": 0,
        "CpxName": null,
        "CpxID": null,
        "SourceGlobalID": "{316CC7EE-284C-4471-87B5-8D72668E1CD8}",
        "GlobalID": "99768108-67e8-4259-83b9-4ebfaf0b7753",
        "IncidentComplexityLevel": null
      }
    },
    {
      "type": "Feature",
      "id": 556648,
      "geometry": {
        "type": "Point",
        "coordinates": [
          -123.462931057099,
          44.4482886532932
        ]
      },
      "properties": {
        "OBJECTID": 556648,
        "SourceOID": 43281781,
        "ABCDMisc": null,
        "ADSPermissionState": "ICS209",
        "ContainmentDateTime": null,
        "ControlDateTime": null,
        "CreatedBySystem": "fireweb",
        "IncidentSize": 0.59,
        "DiscoveryAcres": 0.5,
        "DispatchCenterID": "OR50C",
        "EstimatedCostToDate": null,
        "FinalAcres": null,
        "FinalFireReportApprovedByTitle": null,
        "FinalFireReportApprovedByUnit": null,
        "FinalFireReportApprovedDate": null,
        "FireBehaviorGeneral": null,
        "FireBehaviorGeneral1": null,
        "FireBehaviorGeneral2": null,
        "FireBehaviorGeneral3": null,
        "FireCause": "Undetermined",
        "FireCauseGeneral": "Undetermined (remarks required)",
        "FireCauseSpecific": null,
        "FireCode": "SP8A",
        "FireDepartmentID": null,
        "FireDiscoveryDateTime": 1779577200000,
        "FireMgmtComplexity": null,
        "FireOutDateTime": null,
        "FireStrategyConfinePercent": null,
        "FireStrategyFullSuppPercent": null,
        "FireStrategyMonitorPercent": null,
        "FireStrategyPointZonePercent": null,
        "FSJobCode": null,
        "FSOverrideCode": null,
        "GACC": "NWCC",
        "ICS209ReportDateTime": null,
        "ICS209ReportForTimePeriodFrom": null,
        "ICS209ReportForTimePeriodTo": null,
        "ICS209ReportStatus": null,
        "IncidentManagementOrganization": null,
        "IncidentName": "Botkin",
        "IncidentShortDescription": null,
        "IncidentTypeCategory": "WF",
        "IncidentTypeKind": "FI",
        "InitialLatitude": 44.44828333,
        "InitialLongitude": -123.46291667,
        "InitialResponseAcres": null,
        "InitialResponseDateTime": null,
        "IrwinID": "{49B15722-CBC5-4812-879F-25BEAE81D174}",
        "IsFireCauseInvestigated": null,
        "IsFireCodeRequested": 0,
        "IsFSAssisted": null,
        "IsMultiJurisdictional": null,
        "IsReimbursable": null,
        "IsTrespass": null,
        "IsUnifiedCommand": null,
        "LocalIncidentIdentifier": "000030",
        "ModifiedBySystem": "fireweb",
        "PercentContained": null,
        "PercentPerimeterToBeContained": null,
        "POOCity": null,
        "POOCounty": "Benton",
        "POODispatchCenterID": "OREIC",
        "POOFips": "41003",
        "POOJurisdictionalAgency": null,
        "POOJurisdictionalUnit": null,
        "POOJurisdictionalUnitParentUnit": null,
        "POOLandownerCategory": "Private",
        "POOLandownerKind": "Private",
        "POOLegalDescPrincipalMeridian": null,
        "POOLegalDescQtr": null,
        "POOLegalDescQtrQtr": null,
        "POOLegalDescRange": null,
        "POOLegalDescSection": null,
        "POOLegalDescTownship": null,
        "POOPredictiveServiceAreaID": "NW03",
        "POOProtectingAgency": "DOF",
        "POOProtectingUnit": "OR551S",
        "POOState": "US-OR",
        "PredominantFuelGroup": null,
        "PredominantFuelModel": null,
        "PrimaryFuelModel": null,
        "SecondaryFuelModel": null,
        "TotalIncidentPersonnel": null,
        "UniqueFireIdentifier": "2026-OR551S-000030",
        "WFDSSDecisionStatus": "No Decision",
        "EstimatedFinalCost": null,
        "OrganizationalAssessment": null,
        "StrategicDecisionPublishDate": null,
        "CreatedOnDateTime_dt": 1779585385223,
        "ModifiedOnDateTime_dt": 1779811405247,
        "ActiveFireCandidate": 1,
        "IsCpxChild": 0,
        "CpxName": null,
        "CpxID": null,
        "SourceGlobalID": "{FAA8B141-69E4-424F-BC74-40CCEF6749F8}",
        "GlobalID": "46f8d021-4f9f-4d34-a31e-5521309c351b",
        "IncidentComplexityLevel": null
      }
    },
    {
      "type": "Feature",
      "id": 557314,
      "geometry": {
        "type": "Point",
        "coordinates": [
          -123.261313992667,
          42.4225552175366
        ]
      },
      "properties": {
        "OBJECTID": 557314,
        "SourceOID": 43282446,
        "ABCDMisc": null,
        "ADSPermissionState": "DEFAULT",
        "ContainmentDateTime": null,
        "ControlDateTime": null,
        "CreatedBySystem": "fireweb",
        "IncidentSize": 0.25,
        "DiscoveryAcres": 0.25,
        "DispatchCenterID": "OR712C",
        "EstimatedCostToDate": null,
        "FinalAcres": null,
        "FinalFireReportApprovedByTitle": null,
        "FinalFireReportApprovedByUnit": null,
        "FinalFireReportApprovedDate": null,
        "FireBehaviorGeneral": null,
        "FireBehaviorGeneral1": null,
        "FireBehaviorGeneral2": null,
        "FireBehaviorGeneral3": null,
        "FireCause": "Natural",
        "FireCauseGeneral": "Natural",
        "FireCauseSpecific": null,
        "FireCode": null,
        "FireDepartmentID": null,
        "FireDiscoveryDateTime": 1779743580000,
        "FireMgmtComplexity": null,
        "FireOutDateTime": null,
        "FireStrategyConfinePercent": null,
        "FireStrategyFullSuppPercent": null,
        "FireStrategyMonitorPercent": null,
        "FireStrategyPointZonePercent": null,
        "FSJobCode": null,
        "FSOverrideCode": null,
        "GACC": "NWCC",
        "ICS209ReportDateTime": null,
        "ICS209ReportForTimePeriodFrom": null,
        "ICS209ReportForTimePeriodTo": null,
        "ICS209ReportStatus": null,
        "IncidentManagementOrganization": null,
        "IncidentName": "PP-01336005/Greens Creek Rd 190",
        "IncidentShortDescription": null,
        "IncidentTypeCategory": "WF",
        "IncidentTypeKind": "FI",
        "InitialLatitude": 42.42255,
        "InitialLongitude": -123.2613,
        "InitialResponseAcres": null,
        "InitialResponseDateTime": null,
        "IrwinID": "{FE1E9C1F-34DC-4E6F-A1C0-B4EBF3318C71}",
        "IsFireCauseInvestigated": null,
        "IsFireCodeRequested": 0,
        "IsFSAssisted": null,
        "IsMultiJurisdictional": null,
        "IsReimbursable": null,
        "IsTrespass": null,
        "IsUnifiedCommand": null,
        "LocalIncidentIdentifier": "058926",
        "ModifiedBySystem": "fireweb",
        "PercentContained": null,
        "PercentPerimeterToBeContained": null,
        "POOCity": null,
        "POOCounty": "Josephine",
        "POODispatchCenterID": "ORRVC",
        "POOFips": "41033",
        "POOJurisdictionalAgency": "State",
        "POOJurisdictionalUnit": null,
        "POOJurisdictionalUnitParentUnit": null,
        "POOLandownerCategory": "Private",
        "POOLandownerKind": "Private",
        "POOLegalDescPrincipalMeridian": null,
        "POOLegalDescQtr": null,
        "POOLegalDescQtrQtr": null,
        "POOLegalDescRange": null,
        "POOLegalDescSection": null,
        "POOLegalDescTownship": null,
        "POOPredictiveServiceAreaID": "NW04",
        "POOProtectingAgency": "DOF",
        "POOProtectingUnit": "OR712S",
        "POOState": "US-OR",
        "PredominantFuelGroup": null,
        "PredominantFuelModel": null,
        "PrimaryFuelModel": null,
        "SecondaryFuelModel": null,
        "TotalIncidentPersonnel": null,
        "UniqueFireIdentifier": "2026-OR712S-058926",
        "WFDSSDecisionStatus": "No Decision",
        "EstimatedFinalCost": null,
        "OrganizationalAssessment": null,
        "StrategicDecisionPublishDate": null,
        "CreatedOnDateTime_dt": 1779747444440,
        "ModifiedOnDateTime_dt": 1779751872023,
        "ActiveFireCandidate": 1,
        "IsCpxChild": 0,
        "CpxName": null,
        "CpxID": null,
        "SourceGlobalID": "{D9A67505-4216-4AF2-B975-F6585ACF140F}",
        "GlobalID": "63beb059-0785-4918-ac9d-3007fec567e2",
        "IncidentComplexityLevel": null
      }
    },
    {
      "type": "Feature",
      "id": 557319,
      "geometry": {
        "type": "Point",
        "coordinates": [
          -123.426064052904,
          42.635288546098
        ]
      },
      "properties": {
        "OBJECTID": 557319,
        "SourceOID": 43282451,
        "ABCDMisc": null,
        "ADSPermissionState": "DEFAULT",
        "ContainmentDateTime": null,
        "ControlDateTime": null,
        "CreatedBySystem": "fireweb",
        "IncidentSize": 0.01,
        "DiscoveryAcres": 0.01,
        "DispatchCenterID": "OR712C",
        "EstimatedCostToDate": null,
        "FinalAcres": null,
        "FinalFireReportApprovedByTitle": null,
        "FinalFireReportApprovedByUnit": null,
        "FinalFireReportApprovedDate": null,
        "FireBehaviorGeneral": null,
        "FireBehaviorGeneral1": null,
        "FireBehaviorGeneral2": null,
        "FireBehaviorGeneral3": null,
        "FireCause": "Natural",
        "FireCauseGeneral": "Natural",
        "FireCauseSpecific": null,
        "FireCode": null,
        "FireDepartmentID": null,
        "FireDiscoveryDateTime": 1779742620000,
        "FireMgmtComplexity": null,
        "FireOutDateTime": null,
        "FireStrategyConfinePercent": null,
        "FireStrategyFullSuppPercent": null,
        "FireStrategyMonitorPercent": null,
        "FireStrategyPointZonePercent": null,
        "FSJobCode": null,
        "FSOverrideCode": null,
        "GACC": "NWCC",
        "ICS209ReportDateTime": null,
        "ICS209ReportForTimePeriodFrom": null,
        "ICS209ReportForTimePeriodTo": null,
        "ICS209ReportStatus": null,
        "IncidentManagementOrganization": null,
        "IncidentName": "PP-A7343/Dog Creek Rd. 2001",
        "IncidentShortDescription": null,
        "IncidentTypeCategory": "WF",
        "IncidentTypeKind": "FI",
        "InitialLatitude": 42.63528333,
        "InitialLongitude": -123.42605,
        "InitialResponseAcres": null,
        "InitialResponseDateTime": null,
        "IrwinID": "{DAB0AEEB-7C61-4C14-9179-85076ACEDE5B}",
        "IsFireCauseInvestigated": null,
        "IsFireCodeRequested": 0,
        "IsFSAssisted": null,
        "IsMultiJurisdictional": null,
        "IsReimbursable": null,
        "IsTrespass": null,
        "IsUnifiedCommand": null,
        "LocalIncidentIdentifier": "058826",
        "ModifiedBySystem": "fireweb",
        "PercentContained": null,
        "PercentPerimeterToBeContained": null,
        "POOCity": null,
        "POOCounty": "Josephine",
        "POODispatchCenterID": "ORRVC",
        "POOFips": "41033",
        "POOJurisdictionalAgency": "State",
        "POOJurisdictionalUnit": null,
        "POOJurisdictionalUnitParentUnit": null,
        "POOLandownerCategory": "Private",
        "POOLandownerKind": "Private",
        "POOLegalDescPrincipalMeridian": null,
        "POOLegalDescQtr": null,
        "POOLegalDescQtrQtr": null,
        "POOLegalDescRange": null,
        "POOLegalDescSection": null,
        "POOLegalDescTownship": null,
        "POOPredictiveServiceAreaID": "NW04",
        "POOProtectingAgency": "DOF",
        "POOProtectingUnit": "OR712S",
        "POOState": "US-OR",
        "PredominantFuelGroup": null,
        "PredominantFuelModel": null,
        "PrimaryFuelModel": null,
        "SecondaryFuelModel": null,
        "TotalIncidentPersonnel": null,
        "UniqueFireIdentifier": "2026-OR712S-058826",
        "WFDSSDecisionStatus": "No Decision",
        "EstimatedFinalCost": null,
        "OrganizationalAssessment": null,
        "StrategicDecisionPublishDate": null,
        "CreatedOnDateTime_dt": 1779748618793,
        "ModifiedOnDateTime_dt": 1779752108873,
        "ActiveFireCandidate": 1,
        "IsCpxChild": 0,
        "CpxName": null,
        "CpxID": null,
        "SourceGlobalID": "{67F3E6B3-4E0D-4E22-ADC6-ACD475EA3CD6}",
        "GlobalID": "d800213f-771a-4940-a3ee-08cf2a34b4ef",
        "IncidentComplexityLevel": null
      }
    },
    {
      "type": "Feature",
      "id": 557347,
      "geometry": {
        "type": "Point",
        "coordinates": [
          -120.437903987861,
          44.8556356485372
        ]
      },
      "properties": {
        "OBJECTID": 557347,
        "SourceOID": 43282479,
        "ABCDMisc": null,
        "ADSPermissionState": "DEFAULT",
        "ContainmentDateTime": null,
        "ControlDateTime": null,
        "CreatedBySystem": "wildcade",
        "IncidentSize": 1634,
        "DiscoveryAcres": 0.1,
        "DispatchCenterID": "ORCOC",
        "EstimatedCostToDate": 500000,
        "FinalAcres": null,
        "FinalFireReportApprovedByTitle": null,
        "FinalFireReportApprovedByUnit": null,
        "FinalFireReportApprovedDate": null,
        "FireBehaviorGeneral": "Minimal",
        "FireBehaviorGeneral1": null,
        "FireBehaviorGeneral2": "Running",
        "FireBehaviorGeneral3": null,
        "FireCause": "Human",
        "FireCauseGeneral": null,
        "FireCauseSpecific": null,
        "FireCode": "SPCD",
        "FireDepartmentID": null,
        "FireDiscoveryDateTime": 1779748592000,
        "FireMgmtComplexity": null,
        "FireOutDateTime": null,
        "FireStrategyConfinePercent": 0,
        "FireStrategyFullSuppPercent": 100,
        "FireStrategyMonitorPercent": 0,
        "FireStrategyPointZonePercent": 0,
        "FSJobCode": "PD",
        "FSOverrideCode": "1542",
        "GACC": "NWCC",
        "ICS209ReportDateTime": 1779919329000,
        "ICS209ReportForTimePeriodFrom": 1779834600000,
        "ICS209ReportForTimePeriodTo": 1779915600000,
        "ICS209ReportStatus": "U",
        "IncidentManagementOrganization": "Type 4 IC",
        "IncidentName": "0231 ZEN",
        "IncidentShortDescription": "5 Miles S from Clarno, OR",
        "IncidentTypeCategory": "WF",
        "IncidentTypeKind": "FI",
        "InitialLatitude": 44.85604,
        "InitialLongitude": -120.44317,
        "InitialResponseAcres": null,
        "InitialResponseDateTime": null,
        "IrwinID": "{FDA49146-327E-4651-835C-75B7F568A941}",
        "IsFireCauseInvestigated": null,
        "IsFireCodeRequested": 0,
        "IsFSAssisted": 1,
        "IsMultiJurisdictional": 0,
        "IsReimbursable": 0,
        "IsTrespass": 0,
        "IsUnifiedCommand": 0,
        "LocalIncidentIdentifier": "000231",
        "ModifiedBySystem": "ics209",
        "PercentContained": 40,
        "PercentPerimeterToBeContained": 100,
        "POOCity": "Clarno, OR",
        "POOCounty": "Wasco",
        "POODispatchCenterID": "ORCOC",
        "POOFips": "41065",
        "POOJurisdictionalAgency": "BLM",
        "POOJurisdictionalUnit": "ORPRD",
        "POOJurisdictionalUnitParentUnit": null,
        "POOLandownerCategory": "BLM",
        "POOLandownerKind": "Federal",
        "POOLegalDescPrincipalMeridian": null,
        "POOLegalDescQtr": null,
        "POOLegalDescQtrQtr": null,
        "POOLegalDescRange": null,
        "POOLegalDescSection": null,
        "POOLegalDescTownship": null,
        "POOPredictiveServiceAreaID": "NW06",
        "POOProtectingAgency": "BLM",
        "POOProtectingUnit": "ORPRD",
        "POOState": "US-OR",
        "PredominantFuelGroup": null,
        "PredominantFuelModel": null,
        "PrimaryFuelModel": "Tall Grass (2.5 feet)",
        "SecondaryFuelModel": "Short Grass (1 foot)",
        "TotalIncidentPersonnel": 120,
        "UniqueFireIdentifier": "2026-ORPRD-000231",
        "WFDSSDecisionStatus": "No Decision",
        "EstimatedFinalCost": null,
        "OrganizationalAssessment": null,
        "StrategicDecisionPublishDate": null,
        "CreatedOnDateTime_dt": 1779750681090,
        "ModifiedOnDateTime_dt": 1779919329293,
        "ActiveFireCandidate": 1,
        "IsCpxChild": 0,
        "CpxName": null,
        "CpxID": null,
        "SourceGlobalID": "{B18E7CFF-E880-4CDF-B41A-40E9CAE49424}",
        "GlobalID": "790f62cf-d34f-4c68-8a57-1bf95e3e6602",
        "IncidentComplexityLevel": "Type 4 Incident"
      }
    },
    {
      "type": "Feature",
      "id": 557374,
      "geometry": {
        "type": "Point",
        "coordinates": [
          -122.966630617828,
          42.4178719141904
        ]
      },
      "properties": {
        "OBJECTID": 557374,
        "SourceOID": 43282506,
        "ABCDMisc": null,
        "ADSPermissionState": "DEFAULT",
        "ContainmentDateTime": null,
        "ControlDateTime": null,
        "CreatedBySystem": "fireweb",
        "IncidentSize": null,
        "DiscoveryAcres": 1,
        "DispatchCenterID": "OR71C",
        "EstimatedCostToDate": null,
        "FinalAcres": null,
        "FinalFireReportApprovedByTitle": null,
        "FinalFireReportApprovedByUnit": null,
        "FinalFireReportApprovedDate": null,
        "FireBehaviorGeneral": null,
        "FireBehaviorGeneral1": null,
        "FireBehaviorGeneral2": null,
        "FireBehaviorGeneral3": null,
        "FireCause": "Undetermined",
        "FireCauseGeneral": "Undetermined (remarks required)",
        "FireCauseSpecific": null,
        "FireCode": null,
        "FireDepartmentID": null,
        "FireDiscoveryDateTime": 1779745020000,
        "FireMgmtComplexity": null,
        "FireOutDateTime": null,
        "FireStrategyConfinePercent": null,
        "FireStrategyFullSuppPercent": null,
        "FireStrategyMonitorPercent": null,
        "FireStrategyPointZonePercent": null,
        "FSJobCode": null,
        "FSOverrideCode": null,
        "GACC": "NWCC",
        "ICS209ReportDateTime": null,
        "ICS209ReportForTimePeriodFrom": null,
        "ICS209ReportForTimePeriodTo": null,
        "ICS209ReportStatus": null,
        "IncidentManagementOrganization": null,
        "IncidentName": "Blackwell Rd 8087",
        "IncidentShortDescription": null,
        "IncidentTypeCategory": "WF",
        "IncidentTypeKind": "FI",
        "InitialLatitude": 42.41786667,
        "InitialLongitude": -122.96661667,
        "InitialResponseAcres": null,
        "InitialResponseDateTime": null,
        "IrwinID": "{D2619F53-FF96-4ABB-8E24-14A8281C922D}",
        "IsFireCauseInvestigated": null,
        "IsFireCodeRequested": 0,
        "IsFSAssisted": null,
        "IsMultiJurisdictional": null,
        "IsReimbursable": null,
        "IsTrespass": null,
        "IsUnifiedCommand": null,
        "LocalIncidentIdentifier": "000-469",
        "ModifiedBySystem": "fireweb",
        "PercentContained": null,
        "PercentPerimeterToBeContained": null,
        "POOCity": null,
        "POOCounty": "Jackson",
        "POODispatchCenterID": "ORRVC",
        "POOFips": "41029",
        "POOJurisdictionalAgency": "State",
        "POOJurisdictionalUnit": null,
        "POOJurisdictionalUnitParentUnit": null,
        "POOLandownerCategory": "Private",
        "POOLandownerKind": "Private",
        "POOLegalDescPrincipalMeridian": null,
        "POOLegalDescQtr": null,
        "POOLegalDescQtrQtr": null,
        "POOLegalDescRange": null,
        "POOLegalDescSection": null,
        "POOLegalDescTownship": null,
        "POOPredictiveServiceAreaID": "NW04",
        "POOProtectingAgency": "DOF",
        "POOProtectingUnit": "OR711S",
        "POOState": "US-OR",
        "PredominantFuelGroup": null,
        "PredominantFuelModel": null,
        "PrimaryFuelModel": null,
        "SecondaryFuelModel": null,
        "TotalIncidentPersonnel": null,
        "UniqueFireIdentifier": "2026-OR711S-000-469",
        "WFDSSDecisionStatus": "No Decision",
        "EstimatedFinalCost": null,
        "OrganizationalAssessment": null,
        "StrategicDecisionPublishDate": null,
        "CreatedOnDateTime_dt": 1779754999090,
        "ModifiedOnDateTime_dt": 1779757903770,
        "ActiveFireCandidate": 1,
        "IsCpxChild": 0,
        "CpxName": null,
        "CpxID": null,
        "SourceGlobalID": "{B382BDD1-469B-4BDF-911B-C6727F4D3AE5}",
        "GlobalID": "8a9a584d-162d-459f-883c-b69d16a48607",
        "IncidentComplexityLevel": null
      }
    },
    {
      "type": "Feature",
      "id": 557400,
      "geometry": {
        "type": "Point",
        "coordinates": [
          -123.047813928296,
          42.2261218940644
        ]
      },
      "properties": {
        "OBJECTID": 557400,
        "SourceOID": 43282532,
        "ABCDMisc": null,
        "ADSPermissionState": "DEFAULT",
        "ContainmentDateTime": null,
        "ControlDateTime": null,
        "CreatedBySystem": "fireweb",
        "IncidentSize": 0.01,
        "DiscoveryAcres": 0.01,
        "DispatchCenterID": "OR71C",
        "EstimatedCostToDate": null,
        "FinalAcres": 0.01,
        "FinalFireReportApprovedByTitle": null,
        "FinalFireReportApprovedByUnit": null,
        "FinalFireReportApprovedDate": null,
        "FireBehaviorGeneral": null,
        "FireBehaviorGeneral1": null,
        "FireBehaviorGeneral2": null,
        "FireBehaviorGeneral3": null,
        "FireCause": "Human",
        "FireCauseGeneral": "Power generation/transmission/distribution",
        "FireCauseSpecific": null,
        "FireCode": null,
        "FireDepartmentID": null,
        "FireDiscoveryDateTime": 1779748680000,
        "FireMgmtComplexity": null,
        "FireOutDateTime": null,
        "FireStrategyConfinePercent": null,
        "FireStrategyFullSuppPercent": null,
        "FireStrategyMonitorPercent": null,
        "FireStrategyPointZonePercent": null,
        "FSJobCode": null,
        "FSOverrideCode": null,
        "GACC": "NWCC",
        "ICS209ReportDateTime": null,
        "ICS209ReportForTimePeriodFrom": null,
        "ICS209ReportForTimePeriodTo": null,
        "ICS209ReportStatus": null,
        "IncidentManagementOrganization": null,
        "IncidentName": "PP# 342802 UPPER APPLEGATE RD",
        "IncidentShortDescription": null,
        "IncidentTypeCategory": "WF",
        "IncidentTypeKind": "FI",
        "InitialLatitude": 42.22611667,
        "InitialLongitude": -123.0478,
        "InitialResponseAcres": null,
        "InitialResponseDateTime": null,
        "IrwinID": "{AB96BE21-35D9-4005-AF2E-B5E6497D3DBB}",
        "IsFireCauseInvestigated": null,
        "IsFireCodeRequested": 0,
        "IsFSAssisted": null,
        "IsMultiJurisdictional": null,
        "IsReimbursable": null,
        "IsTrespass": null,
        "IsUnifiedCommand": null,
        "LocalIncidentIdentifier": "000470",
        "ModifiedBySystem": "fireweb",
        "PercentContained": null,
        "PercentPerimeterToBeContained": null,
        "POOCity": null,
        "POOCounty": "Jackson",
        "POODispatchCenterID": "ORRVC",
        "POOFips": "41029",
        "POOJurisdictionalAgency": null,
        "POOJurisdictionalUnit": null,
        "POOJurisdictionalUnitParentUnit": null,
        "POOLandownerCategory": "Private",
        "POOLandownerKind": "Private",
        "POOLegalDescPrincipalMeridian": null,
        "POOLegalDescQtr": null,
        "POOLegalDescQtrQtr": null,
        "POOLegalDescRange": null,
        "POOLegalDescSection": null,
        "POOLegalDescTownship": null,
        "POOPredictiveServiceAreaID": "NW04",
        "POOProtectingAgency": "DOF",
        "POOProtectingUnit": "OR711S",
        "POOState": "US-OR",
        "PredominantFuelGroup": null,
        "PredominantFuelModel": null,
        "PrimaryFuelModel": null,
        "SecondaryFuelModel": null,
        "TotalIncidentPersonnel": null,
        "UniqueFireIdentifier": "2026-OR711S-000470",
        "WFDSSDecisionStatus": "No Decision",
        "EstimatedFinalCost": null,
        "OrganizationalAssessment": null,
        "StrategicDecisionPublishDate": null,
        "CreatedOnDateTime_dt": 1779757935330,
        "ModifiedOnDateTime_dt": 1779770352707,
        "ActiveFireCandidate": 1,
        "IsCpxChild": 0,
        "CpxName": null,
        "CpxID": null,
        "SourceGlobalID": "{A0F3D707-2227-4E74-8ACD-B82D6926FAA3}",
        "GlobalID": "99c9b2ab-1b2e-42ba-841e-49187b0cd851",
        "IncidentComplexityLevel": null
      }
    },
    {
      "type": "Feature",
      "id": 557487,
      "geometry": {
        "type": "Point",
        "coordinates": [
          -123.675397496054,
          43.0777718905785
        ]
      },
      "properties": {
        "OBJECTID": 557487,
        "SourceOID": 43282624,
        "ABCDMisc": null,
        "ADSPermissionState": "DEFAULT",
        "ContainmentDateTime": null,
        "ControlDateTime": null,
        "CreatedBySystem": "fireweb",
        "IncidentSize": 0.1,
        "DiscoveryAcres": 0.1,
        "DispatchCenterID": "OR73C",
        "EstimatedCostToDate": null,
        "FinalAcres": 0.1,
        "FinalFireReportApprovedByTitle": null,
        "FinalFireReportApprovedByUnit": null,
        "FinalFireReportApprovedDate": null,
        "FireBehaviorGeneral": null,
        "FireBehaviorGeneral1": null,
        "FireBehaviorGeneral2": null,
        "FireBehaviorGeneral3": null,
        "FireCause": "Undetermined",
        "FireCauseGeneral": "Undetermined (remarks required)",
        "FireCauseSpecific": null,
        "FireCode": "SPDZ",
        "FireDepartmentID": null,
        "FireDiscoveryDateTime": 1779591900000,
        "FireMgmtComplexity": null,
        "FireOutDateTime": null,
        "FireStrategyConfinePercent": null,
        "FireStrategyFullSuppPercent": null,
        "FireStrategyMonitorPercent": null,
        "FireStrategyPointZonePercent": null,
        "FSJobCode": null,
        "FSOverrideCode": null,
        "GACC": "NWCC",
        "ICS209ReportDateTime": null,
        "ICS209ReportForTimePeriodFrom": null,
        "ICS209ReportForTimePeriodTo": null,
        "ICS209ReportStatus": null,
        "IncidentManagementOrganization": null,
        "IncidentName": "Camas Way",
        "IncidentShortDescription": null,
        "IncidentTypeCategory": "WF",
        "IncidentTypeKind": "FI",
        "InitialLatitude": 43.07776667,
        "InitialLongitude": -123.67538333,
        "InitialResponseAcres": null,
        "InitialResponseDateTime": null,
        "IrwinID": "{A6266DA4-C3F2-401F-A6AB-DD3A0E8B6043}",
        "IsFireCauseInvestigated": null,
        "IsFireCodeRequested": 0,
        "IsFSAssisted": null,
        "IsMultiJurisdictional": null,
        "IsReimbursable": null,
        "IsTrespass": null,
        "IsUnifiedCommand": null,
        "LocalIncidentIdentifier": "733437",
        "ModifiedBySystem": "firecode",
        "PercentContained": null,
        "PercentPerimeterToBeContained": null,
        "POOCity": null,
        "POOCounty": "Douglas",
        "POODispatchCenterID": "ORRICC",
        "POOFips": "41019",
        "POOJurisdictionalAgency": "BLM",
        "POOJurisdictionalUnit": "ORROD",
        "POOJurisdictionalUnitParentUnit": null,
        "POOLandownerCategory": "BLM",
        "POOLandownerKind": "Federal",
        "POOLegalDescPrincipalMeridian": null,
        "POOLegalDescQtr": null,
        "POOLegalDescQtrQtr": null,
        "POOLegalDescRange": null,
        "POOLegalDescSection": null,
        "POOLegalDescTownship": null,
        "POOPredictiveServiceAreaID": "NW03",
        "POOProtectingAgency": "BLM",
        "POOProtectingUnit": "ORROD",
        "POOState": "US-OR",
        "PredominantFuelGroup": null,
        "PredominantFuelModel": "TL3",
        "PrimaryFuelModel": null,
        "SecondaryFuelModel": null,
        "TotalIncidentPersonnel": null,
        "UniqueFireIdentifier": "2026-ORROD-733437",
        "WFDSSDecisionStatus": "No Decision",
        "EstimatedFinalCost": null,
        "OrganizationalAssessment": null,
        "StrategicDecisionPublishDate": null,
        "CreatedOnDateTime_dt": 1779810825910,
        "ModifiedOnDateTime_dt": 1779810830293,
        "ActiveFireCandidate": 1,
        "IsCpxChild": 0,
        "CpxName": null,
        "CpxID": null,
        "SourceGlobalID": "{C4207C62-B789-438E-AFB0-FCF23A7A6C2D}",
        "GlobalID": "8cda8b7c-a603-4692-842a-defbbf172d53",
        "IncidentComplexityLevel": null
      }
    },
    {
      "type": "Feature",
      "id": 557646,
      "geometry": {
        "type": "Point",
        "coordinates": [
          -124.117147720394,
          43.9577885604793
        ]
      },
      "properties": {
        "OBJECTID": 557646,
        "SourceOID": 43282777,
        "ABCDMisc": null,
        "ADSPermissionState": "DEFAULT",
        "ContainmentDateTime": null,
        "ControlDateTime": null,
        "CreatedBySystem": "fireweb",
        "IncidentSize": 0.68,
        "DiscoveryAcres": 0.01,
        "DispatchCenterID": "OR78C",
        "EstimatedCostToDate": null,
        "FinalAcres": 0.68,
        "FinalFireReportApprovedByTitle": null,
        "FinalFireReportApprovedByUnit": null,
        "FinalFireReportApprovedDate": null,
        "FireBehaviorGeneral": null,
        "FireBehaviorGeneral1": null,
        "FireBehaviorGeneral2": null,
        "FireBehaviorGeneral3": null,
        "FireCause": "Human",
        "FireCauseGeneral": "Recreation and ceremony",
        "FireCauseSpecific": null,
        "FireCode": null,
        "FireDepartmentID": null,
        "FireDiscoveryDateTime": 1779604440000,
        "FireMgmtComplexity": null,
        "FireOutDateTime": null,
        "FireStrategyConfinePercent": null,
        "FireStrategyFullSuppPercent": null,
        "FireStrategyMonitorPercent": null,
        "FireStrategyPointZonePercent": null,
        "FSJobCode": null,
        "FSOverrideCode": null,
        "GACC": "NWCC",
        "ICS209ReportDateTime": null,
        "ICS209ReportForTimePeriodFrom": null,
        "ICS209ReportForTimePeriodTo": null,
        "ICS209ReportStatus": null,
        "IncidentManagementOrganization": null,
        "IncidentName": "South Jetty 1",
        "IncidentShortDescription": null,
        "IncidentTypeCategory": "WF",
        "IncidentTypeKind": "FI",
        "InitialLatitude": 43.95778333,
        "InitialLongitude": -124.11713333,
        "InitialResponseAcres": null,
        "InitialResponseDateTime": null,
        "IrwinID": "{33864B64-AD58-47D8-9649-2A9408FB58DD}",
        "IsFireCauseInvestigated": null,
        "IsFireCodeRequested": 0,
        "IsFSAssisted": null,
        "IsMultiJurisdictional": null,
        "IsReimbursable": null,
        "IsTrespass": null,
        "IsUnifiedCommand": null,
        "LocalIncidentIdentifier": "000198",
        "ModifiedBySystem": "fireweb",
        "PercentContained": null,
        "PercentPerimeterToBeContained": null,
        "POOCity": null,
        "POOCounty": "Lane",
        "POODispatchCenterID": "OREIC",
        "POOFips": "41039",
        "POOJurisdictionalAgency": "DOF",
        "POOJurisdictionalUnit": "OR781S",
        "POOJurisdictionalUnitParentUnit": null,
        "POOLandownerCategory": "State",
        "POOLandownerKind": "State",
        "POOLegalDescPrincipalMeridian": null,
        "POOLegalDescQtr": null,
        "POOLegalDescQtrQtr": null,
        "POOLegalDescRange": null,
        "POOLegalDescSection": null,
        "POOLegalDescTownship": null,
        "POOPredictiveServiceAreaID": "NW03",
        "POOProtectingAgency": "DOF",
        "POOProtectingUnit": "OR781S",
        "POOState": "US-OR",
        "PredominantFuelGroup": null,
        "PredominantFuelModel": "GR7",
        "PrimaryFuelModel": null,
        "SecondaryFuelModel": null,
        "TotalIncidentPersonnel": null,
        "UniqueFireIdentifier": "2026-OR781S-000198",
        "WFDSSDecisionStatus": "No Decision",
        "EstimatedFinalCost": null,
        "OrganizationalAssessment": null,
        "StrategicDecisionPublishDate": null,
        "CreatedOnDateTime_dt": 1779831143540,
        "ModifiedOnDateTime_dt": 1779831143540,
        "ActiveFireCandidate": 1,
        "IsCpxChild": 0,
        "CpxName": null,
        "CpxID": null,
        "SourceGlobalID": "{3CDD74B4-A6F9-4480-8C57-3110E7366CFE}",
        "GlobalID": "462b9d51-242b-4547-bc36-f355827576d8",
        "IncidentComplexityLevel": null
      }
    },
    {
      "type": "Feature",
      "id": 557659,
      "geometry": {
        "type": "Point",
        "coordinates": [
          -122.87996390759,
          42.2534552411198
        ]
      },
      "properties": {
        "OBJECTID": 557659,
        "SourceOID": 43282791,
        "ABCDMisc": null,
        "ADSPermissionState": "DEFAULT",
        "ContainmentDateTime": null,
        "ControlDateTime": null,
        "CreatedBySystem": "fireweb",
        "IncidentSize": 0.01,
        "DiscoveryAcres": 0.01,
        "DispatchCenterID": "OR71C",
        "EstimatedCostToDate": null,
        "FinalAcres": 0.01,
        "FinalFireReportApprovedByTitle": null,
        "FinalFireReportApprovedByUnit": null,
        "FinalFireReportApprovedDate": null,
        "FireBehaviorGeneral": null,
        "FireBehaviorGeneral1": null,
        "FireBehaviorGeneral2": null,
        "FireBehaviorGeneral3": null,
        "FireCause": "Human",
        "FireCauseGeneral": "Debris and open burning",
        "FireCauseSpecific": null,
        "FireCode": null,
        "FireDepartmentID": null,
        "FireDiscoveryDateTime": 1779827220000,
        "FireMgmtComplexity": null,
        "FireOutDateTime": null,
        "FireStrategyConfinePercent": null,
        "FireStrategyFullSuppPercent": null,
        "FireStrategyMonitorPercent": null,
        "FireStrategyPointZonePercent": null,
        "FSJobCode": null,
        "FSOverrideCode": null,
        "GACC": "NWCC",
        "ICS209ReportDateTime": null,
        "ICS209ReportForTimePeriodFrom": null,
        "ICS209ReportForTimePeriodTo": null,
        "ICS209ReportStatus": null,
        "IncidentManagementOrganization": null,
        "IncidentName": "Dark Hollow Rd.",
        "IncidentShortDescription": null,
        "IncidentTypeCategory": "WF",
        "IncidentTypeKind": "FI",
        "InitialLatitude": 42.25345,
        "InitialLongitude": -122.87995,
        "InitialResponseAcres": null,
        "InitialResponseDateTime": null,
        "IrwinID": "{1D98C98D-2F8E-4EDF-BC11-BB9BEF4D1B11}",
        "IsFireCauseInvestigated": null,
        "IsFireCodeRequested": 0,
        "IsFSAssisted": null,
        "IsMultiJurisdictional": null,
        "IsReimbursable": null,
        "IsTrespass": null,
        "IsUnifiedCommand": null,
        "LocalIncidentIdentifier": "000-473",
        "ModifiedBySystem": "fireweb",
        "PercentContained": null,
        "PercentPerimeterToBeContained": null,
        "POOCity": null,
        "POOCounty": "Jackson",
        "POODispatchCenterID": "ORRVC",
        "POOFips": "41029",
        "POOJurisdictionalAgency": null,
        "POOJurisdictionalUnit": null,
        "POOJurisdictionalUnitParentUnit": null,
        "POOLandownerCategory": "Private",
        "POOLandownerKind": "Private",
        "POOLegalDescPrincipalMeridian": null,
        "POOLegalDescQtr": null,
        "POOLegalDescQtrQtr": null,
        "POOLegalDescRange": null,
        "POOLegalDescSection": null,
        "POOLegalDescTownship": null,
        "POOPredictiveServiceAreaID": "NW04",
        "POOProtectingAgency": "DOF",
        "POOProtectingUnit": "OR711S",
        "POOState": "US-OR",
        "PredominantFuelGroup": null,
        "PredominantFuelModel": null,
        "PrimaryFuelModel": null,
        "SecondaryFuelModel": null,
        "TotalIncidentPersonnel": null,
        "UniqueFireIdentifier": "2026-OR711S-000-473",
        "WFDSSDecisionStatus": "No Decision",
        "EstimatedFinalCost": null,
        "OrganizationalAssessment": null,
        "StrategicDecisionPublishDate": null,
        "CreatedOnDateTime_dt": 1779835032527,
        "ModifiedOnDateTime_dt": 1779835032527,
        "ActiveFireCandidate": 1,
        "IsCpxChild": 0,
        "CpxName": null,
        "CpxID": null,
        "SourceGlobalID": "{845E62A7-62AF-4AE6-A88A-D1ED6EB64776}",
        "GlobalID": "0a9fe6ca-43bb-42b1-aeaa-d343e7ed0e24",
        "IncidentComplexityLevel": null
      }
    },
    {
      "type": "Feature",
      "id": 557780,
      "geometry": {
        "type": "Point",
        "coordinates": [
          -122.613159380506,
          43.824736028542
        ]
      },
      "properties": {
        "OBJECTID": 557780,
        "SourceOID": 43282912,
        "ABCDMisc": null,
        "ADSPermissionState": "ICS209",
        "ContainmentDateTime": null,
        "ControlDateTime": null,
        "CreatedBySystem": "fireweb",
        "IncidentSize": 2,
        "DiscoveryAcres": 2,
        "DispatchCenterID": "OR771C",
        "EstimatedCostToDate": null,
        "FinalAcres": 2,
        "FinalFireReportApprovedByTitle": null,
        "FinalFireReportApprovedByUnit": null,
        "FinalFireReportApprovedDate": null,
        "FireBehaviorGeneral": null,
        "FireBehaviorGeneral1": null,
        "FireBehaviorGeneral2": null,
        "FireBehaviorGeneral3": null,
        "FireCause": "Human",
        "FireCauseGeneral": "Equipment and vehicle use",
        "FireCauseSpecific": null,
        "FireCode": "SPGF",
        "FireDepartmentID": null,
        "FireDiscoveryDateTime": 1779477480000,
        "FireMgmtComplexity": null,
        "FireOutDateTime": null,
        "FireStrategyConfinePercent": null,
        "FireStrategyFullSuppPercent": null,
        "FireStrategyMonitorPercent": null,
        "FireStrategyPointZonePercent": null,
        "FSJobCode": null,
        "FSOverrideCode": null,
        "GACC": "NWCC",
        "ICS209ReportDateTime": null,
        "ICS209ReportForTimePeriodFrom": null,
        "ICS209ReportForTimePeriodTo": null,
        "ICS209ReportStatus": null,
        "IncidentManagementOrganization": null,
        "IncidentName": "Non-Stat HWY 58 MP 24",
        "IncidentShortDescription": null,
        "IncidentTypeCategory": "WF",
        "IncidentTypeKind": "FI",
        "InitialLatitude": 43.82473066,
        "InitialLongitude": -122.61314524,
        "InitialResponseAcres": null,
        "InitialResponseDateTime": null,
        "IrwinID": "{007C11A0-4F59-49D9-8E99-43BB87BF4B6E}",
        "IsFireCauseInvestigated": null,
        "IsFireCodeRequested": 0,
        "IsFSAssisted": null,
        "IsMultiJurisdictional": null,
        "IsReimbursable": null,
        "IsTrespass": null,
        "IsUnifiedCommand": null,
        "LocalIncidentIdentifier": "000089",
        "ModifiedBySystem": "fireweb",
        "PercentContained": null,
        "PercentPerimeterToBeContained": null,
        "POOCity": null,
        "POOCounty": "Lane",
        "POODispatchCenterID": "OREIC",
        "POOFips": "41039",
        "POOJurisdictionalAgency": "OthFed",
        "POOJurisdictionalUnit": null,
        "POOJurisdictionalUnitParentUnit": null,
        "POOLandownerCategory": "DOD",
        "POOLandownerKind": "Federal",
        "POOLegalDescPrincipalMeridian": null,
        "POOLegalDescQtr": null,
        "POOLegalDescQtrQtr": null,
        "POOLegalDescRange": null,
        "POOLegalDescSection": null,
        "POOLegalDescTownship": null,
        "POOPredictiveServiceAreaID": "NW04",
        "POOProtectingAgency": "DOF",
        "POOProtectingUnit": "OR771S",
        "POOState": "US-OR",
        "PredominantFuelGroup": null,
        "PredominantFuelModel": null,
        "PrimaryFuelModel": null,
        "SecondaryFuelModel": null,
        "TotalIncidentPersonnel": null,
        "UniqueFireIdentifier": "2026-OR771S-000089",
        "WFDSSDecisionStatus": "No Decision",
        "EstimatedFinalCost": null,
        "OrganizationalAssessment": null,
        "StrategicDecisionPublishDate": null,
        "CreatedOnDateTime_dt": 1779904906123,
        "ModifiedOnDateTime_dt": 1779904947147,
        "ActiveFireCandidate": 1,
        "IsCpxChild": 0,
        "CpxName": null,
        "CpxID": null,
        "SourceGlobalID": "{666746C2-6CD8-44B7-B47C-341F9CC895A1}",
        "GlobalID": "d7436670-4af0-4474-8a9f-d7b17c3047ad",
        "IncidentComplexityLevel": null
      }
    },
    {
      "type": "Feature",
      "id": 557792,
      "geometry": {
        "type": "Point",
        "coordinates": [
          -122.514806399787,
          45.2428074651804
        ]
      },
      "properties": {
        "OBJECTID": 557792,
        "SourceOID": 43282924,
        "ABCDMisc": null,
        "ADSPermissionState": "DEFAULT",
        "ContainmentDateTime": null,
        "ControlDateTime": null,
        "CreatedBySystem": "fireweb",
        "IncidentSize": 0.1,
        "DiscoveryAcres": 0.1,
        "DispatchCenterID": "OR50C",
        "EstimatedCostToDate": null,
        "FinalAcres": 0.1,
        "FinalFireReportApprovedByTitle": null,
        "FinalFireReportApprovedByUnit": null,
        "FinalFireReportApprovedDate": null,
        "FireBehaviorGeneral": null,
        "FireBehaviorGeneral1": null,
        "FireBehaviorGeneral2": null,
        "FireBehaviorGeneral3": null,
        "FireCause": "Human",
        "FireCauseGeneral": "Debris and open burning",
        "FireCauseSpecific": null,
        "FireCode": null,
        "FireDepartmentID": null,
        "FireDiscoveryDateTime": 1779906960000,
        "FireMgmtComplexity": null,
        "FireOutDateTime": null,
        "FireStrategyConfinePercent": null,
        "FireStrategyFullSuppPercent": null,
        "FireStrategyMonitorPercent": null,
        "FireStrategyPointZonePercent": null,
        "FSJobCode": null,
        "FSOverrideCode": null,
        "GACC": "NWCC",
        "ICS209ReportDateTime": null,
        "ICS209ReportForTimePeriodFrom": null,
        "ICS209ReportForTimePeriodTo": null,
        "ICS209ReportStatus": null,
        "IncidentManagementOrganization": null,
        "IncidentName": "Lost Lane",
        "IncidentShortDescription": null,
        "IncidentTypeCategory": "WF",
        "IncidentTypeKind": "FI",
        "InitialLatitude": 45.242802,
        "InitialLongitude": -122.514792,
        "InitialResponseAcres": null,
        "InitialResponseDateTime": null,
        "IrwinID": "{444A3025-BB51-4692-BBD8-96AA7B34F5D8}",
        "IsFireCauseInvestigated": null,
        "IsFireCodeRequested": 0,
        "IsFSAssisted": null,
        "IsMultiJurisdictional": null,
        "IsReimbursable": null,
        "IsTrespass": null,
        "IsUnifiedCommand": null,
        "LocalIncidentIdentifier": "000089",
        "ModifiedBySystem": "fireweb",
        "PercentContained": null,
        "PercentPerimeterToBeContained": null,
        "POOCity": null,
        "POOCounty": "Clackamas",
        "POODispatchCenterID": "OREIC",
        "POOFips": "41005",
        "POOJurisdictionalAgency": null,
        "POOJurisdictionalUnit": null,
        "POOJurisdictionalUnitParentUnit": null,
        "POOLandownerCategory": "Private",
        "POOLandownerKind": "Private",
        "POOLegalDescPrincipalMeridian": null,
        "POOLegalDescQtr": null,
        "POOLegalDescQtrQtr": null,
        "POOLegalDescRange": null,
        "POOLegalDescSection": null,
        "POOLegalDescTownship": null,
        "POOPredictiveServiceAreaID": "NW02",
        "POOProtectingAgency": "DOF",
        "POOProtectingUnit": "OR581S",
        "POOState": "US-OR",
        "PredominantFuelGroup": null,
        "PredominantFuelModel": null,
        "PrimaryFuelModel": null,
        "SecondaryFuelModel": null,
        "TotalIncidentPersonnel": null,
        "UniqueFireIdentifier": "2026-OR581S-000089",
        "WFDSSDecisionStatus": "No Decision",
        "EstimatedFinalCost": null,
        "OrganizationalAssessment": null,
        "StrategicDecisionPublishDate": null,
        "CreatedOnDateTime_dt": 1779907421483,
        "ModifiedOnDateTime_dt": 1779907421483,
        "ActiveFireCandidate": 1,
        "IsCpxChild": 0,
        "CpxName": null,
        "CpxID": null,
        "SourceGlobalID": "{E0786AAF-422C-4179-91E8-790AC52C8280}",
        "GlobalID": "b7d43b5d-882c-419d-96fe-0ce4537213b4",
        "IncidentComplexityLevel": null
      }
    },
    {
      "type": "Feature",
      "id": 557833,
      "geometry": {
        "type": "Point",
        "coordinates": [
          -123.595841694195,
          44.382146406269
        ]
      },
      "properties": {
        "OBJECTID": 557833,
        "SourceOID": 43282966,
        "ABCDMisc": null,
        "ADSPermissionState": "DEFAULT",
        "ContainmentDateTime": null,
        "ControlDateTime": null,
        "CreatedBySystem": "fireweb",
        "IncidentSize": null,
        "DiscoveryAcres": 0.01,
        "DispatchCenterID": "OR50C",
        "EstimatedCostToDate": null,
        "FinalAcres": null,
        "FinalFireReportApprovedByTitle": null,
        "FinalFireReportApprovedByUnit": null,
        "FinalFireReportApprovedDate": null,
        "FireBehaviorGeneral": null,
        "FireBehaviorGeneral1": null,
        "FireBehaviorGeneral2": null,
        "FireBehaviorGeneral3": null,
        "FireCause": "Undetermined",
        "FireCauseGeneral": null,
        "FireCauseSpecific": null,
        "FireCode": null,
        "FireDepartmentID": null,
        "FireDiscoveryDateTime": 1779903600000,
        "FireMgmtComplexity": null,
        "FireOutDateTime": null,
        "FireStrategyConfinePercent": null,
        "FireStrategyFullSuppPercent": null,
        "FireStrategyMonitorPercent": null,
        "FireStrategyPointZonePercent": null,
        "FSJobCode": null,
        "FSOverrideCode": null,
        "GACC": "NWCC",
        "ICS209ReportDateTime": null,
        "ICS209ReportForTimePeriodFrom": null,
        "ICS209ReportForTimePeriodTo": null,
        "ICS209ReportStatus": null,
        "IncidentManagementOrganization": null,
        "IncidentName": "Alsea Structure",
        "IncidentShortDescription": null,
        "IncidentTypeCategory": "WF",
        "IncidentTypeKind": "FI",
        "InitialLatitude": 44.3821411,
        "InitialLongitude": -123.5958273,
        "InitialResponseAcres": null,
        "InitialResponseDateTime": null,
        "IrwinID": "{F65240E9-06D2-40CF-8CA0-D02D03E0BA81}",
        "IsFireCauseInvestigated": null,
        "IsFireCodeRequested": 0,
        "IsFSAssisted": null,
        "IsMultiJurisdictional": null,
        "IsReimbursable": null,
        "IsTrespass": null,
        "IsUnifiedCommand": null,
        "LocalIncidentIdentifier": "000031",
        "ModifiedBySystem": "fireweb",
        "PercentContained": null,
        "PercentPerimeterToBeContained": null,
        "POOCity": null,
        "POOCounty": "Benton",
        "POODispatchCenterID": "OREIC",
        "POOFips": "41003",
        "POOJurisdictionalAgency": null,
        "POOJurisdictionalUnit": null,
        "POOJurisdictionalUnitParentUnit": null,
        "POOLandownerCategory": "Private",
        "POOLandownerKind": "Private",
        "POOLegalDescPrincipalMeridian": null,
        "POOLegalDescQtr": null,
        "POOLegalDescQtrQtr": null,
        "POOLegalDescRange": null,
        "POOLegalDescSection": null,
        "POOLegalDescTownship": null,
        "POOPredictiveServiceAreaID": "NW03",
        "POOProtectingAgency": "DOF",
        "POOProtectingUnit": "OR551S",
        "POOState": "US-OR",
        "PredominantFuelGroup": null,
        "PredominantFuelModel": null,
        "PrimaryFuelModel": null,
        "SecondaryFuelModel": null,
        "TotalIncidentPersonnel": null,
        "UniqueFireIdentifier": "2026-OR551S-000031",
        "WFDSSDecisionStatus": "No Decision",
        "EstimatedFinalCost": null,
        "OrganizationalAssessment": null,
        "StrategicDecisionPublishDate": null,
        "CreatedOnDateTime_dt": 1779917547620,
        "ModifiedOnDateTime_dt": 1779917547620,
        "ActiveFireCandidate": 1,
        "IsCpxChild": 0,
        "CpxName": null,
        "CpxID": null,
        "SourceGlobalID": "{A16DF3C9-49E7-4FBB-ABC1-CE85F8257DC1}",
        "GlobalID": "acb4d363-a54e-44a0-8fe6-b97aa43d189c",
        "IncidentComplexityLevel": null
      }
    }
  ],
  "_meta": {
    "fetched_at_utc": "2026-05-28T03:18:23+00:00",
    "source": "https://services3.arcgis.com/T4QMspbfLg3qTGWY/arcgis/rest/services/WFIGS_Incident_Locations_Current/FeatureServer/0/query",
    "where_clause": "POOState IN ('US-OR')",
    "states": [
      "US-OR"
    ],
    "bbox_wsen": null,
    "feature_count": 18,
    "attribution": "National Interagency Fire Center (NIFC) / WFIGS \u2014 verify license on data-nifc.opendata.arcgis.com"
  }
}